{
    "links": {
        "self": "http://www.neowsapp.com/rest/v1/neo/3623521?api_key=iIulBulltgU6a56xZRHN4H3l9WmuAYTsLGpBGhQ2"
    },
    "id": "3623521",
    "neo_reference_id": "3623521",
    "name": "(2013 AK20)",
    "designation": "2013 AK20",
    "nasa_jpl_url": "http://ssd.jpl.nasa.gov/sbdb.cgi?sstr=3623521",
    "absolute_magnitude_h": 23.3,
    "estimated_diameter": {
        "kilometers": {
            "estimated_diameter_min": 0.058150704,
            "estimated_diameter_max": 0.130028927
        },
        "meters": {
            "estimated_diameter_min": 58.1507039646,
            "estimated_diameter_max": 130.0289270043
        },
        "miles": {
            "estimated_diameter_min": 0.0361331611,
            "estimated_diameter_max": 0.0807962044
        },
        "feet": {
            "estimated_diameter_min": 190.7831555951,
            "estimated_diameter_max": 426.6041048727
        }
    },
    "is_potentially_hazardous_asteroid": false,
    "close_approach_data": [
        {
            "close_approach_date": "2012-08-30",
            "close_approach_date_full": "2012-Aug-30 18:52",
            "epoch_date_close_approach": 1346352720000,
            "relative_velocity": {
                "kilometers_per_second": "9.660365519",
                "kilometers_per_hour": "34777.3158685562",
                "miles_per_hour": "21609.2716295482"
            },
            "miss_distance": {
                "astronomical": "0.3326912715",
                "lunar": "129.4169046135",
                "kilometers": "49769905.583991705",
                "miles": "30925585.291447329"
            },
            "orbiting_body": "Earth"
        },
        {
            "close_approach_date": "2012-12-28",
            "close_approach_date_full": "2012-Dec-28 16:09",
            "epoch_date_close_approach": 1356710940000,
            "relative_velocity": {
                "kilometers_per_second": "9.7392690321",
                "kilometers_per_hour": "35061.3685154627",
                "miles_per_hour": "21785.770897844"
            },
            "miss_distance": {
                "astronomical": "0.1665109911",
                "lunar": "64.7727755379",
                "kilometers": "24909689.600148957",
                "miles": "15478163.3855593266"
            },
            "orbiting_body": "Earth"
        }
    ],
    "orbital_data": {
        "orbit_id": "6",
        "orbit_determination_date": "2017-04-06 08:47:26",
        "first_observation_date": "2013-01-05",
        "last_observation_date": "2013-01-20",
        "data_arc_in_days": 15,
        "observations_used": 31,
        "orbit_uncertainty": "8",
        "minimum_orbit_intersection": ".156144",
        "jupiter_tisserand_invariant": "4.800",
        "epoch_osculation": "2456300.5",
        "eccentricity": ".2233506822579654",
        "semi_major_axis": "1.34965131030485",
        "inclination": "17.84047487612465",
        "ascending_node_longitude": "108.5551778355001",
        "orbital_period": "572.7047667613308",
        "perihelion_distance": "1.048205769337905",
        "perihelion_argument": "296.8551611015304",
        "aphelion_distance": "1.651096851271795",
        "perihelion_time": "2456234.009673992322",
        "mean_anomaly": "41.79556160869076",
        "mean_motion": ".628596129967304",
        "equinox": "J2000",
        "orbit_class": {
            "orbit_class_type": "AMO",
            "orbit_class_description": "Near-Earth asteroid orbits similar to that of 1221 Amor",
            "orbit_class_range": "1.017 AU < q (perihelion) < 1.3 AU"
        }
    },
    "is_sentry_object": false
}